OBJECT_NAME,OBJECT_ID,EPOCH,MEAN_MOTION,ECCENTRICITY,INCLINATION,RA_OF_ASC_NODE,ARG_OF_PERICENTER,MEAN_ANOMALY,EPHEMERIS_TYPE,CLASSIFICATION_TYPE,NORAD_CAT_ID,ELEMENT_SET_NO,REV_AT_EPOCH,BSTAR,MEAN_MOTION_DOT,MEAN_MOTION_DDOT
HAWK-5A,2022-057AB,2026-07-04T21:45:54.247968,15.52050583,.00042354,97.6628,345.9084,16.9021,343.2371,0,U,52757,999,22909,.49041079E-3,.2953E-3,0
HAWK-6B,2023-011A,2026-07-04T15:00:42.329088,15.23088355,.00025175,40.4975,250.3511,181.3934,178.6868,0,U,55324,999,19050,.27895297E-3,.6526E-4,0
HAWK-6C,2023-011C,2026-07-05T05:09:35.304480,15.23094987,.00029537,40.4958,243.7478,167.8665,192.2216,0,U,55326,999,19060,.29898324E-3,.701E-4,0
HAWK-6A,2023-011D,2026-07-05T05:09:38.280960,15.23096203,.00025043,40.4969,245.3741,166.8050,193.2826,0,U,55327,999,19060,.30036238E-3,.7044E-4,0
HAWK-7A,2023-054P,2026-07-04T22:18:15.363936,15.27553055,.00026308,97.2675,72.8153,13.4749,346.6561,0,U,56191,999,17973,.32290886E-3,.8632E-4,0
HAWK-7B,2023-054R,2026-07-04T17:35:10.099392,15.27552891,.00024538,97.2703,70.8940,35.8376,324.3028,0,U,56193,999,17970,.34934762E-3,.9345E-4,0
HAWK-7C,2023-054Y,2026-07-05T03:00:58.732992,15.27558745,.00021209,97.2677,72.0400,23.2789,336.8547,0,U,56200,999,17976,.35018887E-3,.937E-4,0
